STARLINK-36624          
1 67636U 26020V   26044.13750828  .00293099  00000+0  13434-2 0  9996
2 67636  42.9978 291.1635 0001948 281.5859  78.4794 15.82086253  2210
STARLINK-36610          
1 67637U 26020W   26044.16668981  .00180129  00000+0  10896-2 0  9996
2 67637  42.9988 291.0777 0001754 292.5295 197.1078 15.76287713  3446
STARLINK-36599          
1 67638U 26020X   26044.13521800  .00297787  00000+0  13628-2 0  9997
2 67638  42.9983 291.1428 0002571 264.0341  96.0237 15.82105984  2214
STARLINK-36595          
1 67639U 26020Y   26044.13443146  .00315120  00000+0  14399-2 0  9992
2 67639  42.9983 291.1356 0002382 261.6975  98.3626 15.82094995  2217
STARLINK-36570          
1 67640U 26020Z   26044.16668981  .00145077  00000+0  88150-3 0  9992
2 67640  42.9993 290.9824 0002010 266.4568 260.5266 15.76294132  3443
STARLINK-36514          
1 67641U 26020AA  26044.13214060  .00280229  00000+0  12861-2 0  9999
2 67641  42.9982 291.1168 0001918 263.9229  96.1424 15.82092695  2218
STARLINK-36556          
1 67642U 26020AB  26044.13150576  .00217857  00000+0  10091-2 0  9991
2 67642  42.9984 291.1114 0002341 241.0578 119.0059 15.82062901  2213
STARLINK-36533          
1 67643U 26020AC  26044.16668981  .00102624  00000+0  62653-3 0  9996
2 67643  42.9991 291.0142 0001720 271.6064 242.9063 15.76331833  3444
STARLINK-36623          
1 67644U 26020AD  26044.16668981  .00066365  00000+0  40754-3 0  9996
2 67644  42.9992 290.9190 0001603 270.7630 281.0742 15.76355515  3447
STARLINK-36619          
1 67645U 26020AE  26044.16668981 -.01787098  00000+0 -11194-1 0  9997
2 67645  42.9988 290.8952 0001446 266.8623 294.7979 15.78794155  3443
ALSAT-3B                
1 67646U 26021A   26044.15067294  .00007382  00000+0  31103-3 0  9990
2 67646  97.4720 118.5929 0011878 216.3414 143.7017 15.23572335  1988
CZ-2C R/B               
1 67647U 26021B   26044.15347498  .00012993  00000+0  39302-3 0  9991
2 67647  97.6561 119.1280 0153744  96.4846 265.3921 15.23413149  1966
