CCSDS_OMM_VERS = 2.0
CREATION_DATE  = 
ORIGINATOR     = 

OBJECT_NAME    = STARLINK-36624
OBJECT_ID      = 2026-020V
CENTER_NAME    = EARTH
REF_FRAME      = TEME
TIME_SYSTEM    = UTC
MEAN_ELEMENT_THEORY = SGP/SGP4

EPOCH          = 2026-02-13T03:18:00.715392
MEAN_MOTION    = 15.82086253
ECCENTRICITY   = .0001948
INCLINATION    = 42.9978
RA_OF_ASC_NODE = 291.1635
ARG_OF_PERICENTER = 281.5859
MEAN_ANOMALY   = 78.4794

EPHEMERIS_TYPE = 0
CLASSIFICATION_TYPE = U
NORAD_CAT_ID   = 67636
ELEMENT_SET_NO = 999
REV_AT_EPOCH   = 221
BSTAR          = .13434E-2
MEAN_MOTION_DOT = .293099E-2
MEAN_MOTION_DDOT = 0

CCSDS_OMM_VERS = 2.0
CREATION_DATE  = 
ORIGINATOR     = 

OBJECT_NAME    = STARLINK-36610
OBJECT_ID      = 2026-020W
CENTER_NAME    = EARTH
REF_FRAME      = TEME
TIME_SYSTEM    = UTC
MEAN_ELEMENT_THEORY = SGP/SGP4

EPOCH          = 2026-02-13T04:00:01.999584
MEAN_MOTION    = 15.76287713
ECCENTRICITY   = .0001754
INCLINATION    = 42.9988
RA_OF_ASC_NODE = 291.0777
ARG_OF_PERICENTER = 292.5295
MEAN_ANOMALY   = 197.1078

EPHEMERIS_TYPE = 0
CLASSIFICATION_TYPE = U
NORAD_CAT_ID   = 67637
ELEMENT_SET_NO = 999
REV_AT_EPOCH   = 344
BSTAR          = .10896E-2
MEAN_MOTION_DOT = .180129E-2
MEAN_MOTION_DDOT = 0

CCSDS_OMM_VERS = 2.0
CREATION_DATE  = 
ORIGINATOR     = 

OBJECT_NAME    = STARLINK-36599
OBJECT_ID      = 2026-020X
CENTER_NAME    = EARTH
REF_FRAME      = TEME
TIME_SYSTEM    = UTC
MEAN_ELEMENT_THEORY = SGP/SGP4

EPOCH          = 2026-02-13T03:14:42.835200
MEAN_MOTION    = 15.82105984
ECCENTRICITY   = .0002571
INCLINATION    = 42.9983
RA_OF_ASC_NODE = 291.1428
ARG_OF_PERICENTER = 264.0341
MEAN_ANOMALY   = 96.0237

EPHEMERIS_TYPE = 0
CLASSIFICATION_TYPE = U
NORAD_CAT_ID   = 67638
ELEMENT_SET_NO = 999
REV_AT_EPOCH   = 221
BSTAR          = .13628E-2
MEAN_MOTION_DOT = .297787E-2
MEAN_MOTION_DDOT = 0

CCSDS_OMM_VERS = 2.0
CREATION_DATE  = 
ORIGINATOR     = 

OBJECT_NAME    = STARLINK-36595
OBJECT_ID      = 2026-020Y
CENTER_NAME    = EARTH
REF_FRAME      = TEME
TIME_SYSTEM    = UTC
MEAN_ELEMENT_THEORY = SGP/SGP4

EPOCH          = 2026-02-13T03:13:34.878144
MEAN_MOTION    = 15.82094995
ECCENTRICITY   = .0002382
INCLINATION    = 42.9983
RA_OF_ASC_NODE = 291.1356
ARG_OF_PERICENTER = 261.6975
MEAN_ANOMALY   = 98.3626

EPHEMERIS_TYPE = 0
CLASSIFICATION_TYPE = U
NORAD_CAT_ID   = 67639
ELEMENT_SET_NO = 999
REV_AT_EPOCH   = 221
BSTAR          = .14399E-2
MEAN_MOTION_DOT = .31512E-2
MEAN_MOTION_DDOT = 0

CCSDS_OMM_VERS = 2.0
CREATION_DATE  = 
ORIGINATOR     = 

OBJECT_NAME    = STARLINK-36570
OBJECT_ID      = 2026-020Z
CENTER_NAME    = EARTH
REF_FRAME      = TEME
TIME_SYSTEM    = UTC
MEAN_ELEMENT_THEORY = SGP/SGP4

EPOCH          = 2026-02-13T04:00:01.999584
MEAN_MOTION    = 15.76294132
ECCENTRICITY   = .000201
INCLINATION    = 42.9993
RA_OF_ASC_NODE = 290.9824
ARG_OF_PERICENTER = 266.4568
MEAN_ANOMALY   = 260.5266

EPHEMERIS_TYPE = 0
CLASSIFICATION_TYPE = U
NORAD_CAT_ID   = 67640
ELEMENT_SET_NO = 999
REV_AT_EPOCH   = 344
BSTAR          = .8815E-3
MEAN_MOTION_DOT = .145077E-2
MEAN_MOTION_DDOT = 0

CCSDS_OMM_VERS = 2.0
CREATION_DATE  = 
ORIGINATOR     = 

OBJECT_NAME    = STARLINK-36514
OBJECT_ID      = 2026-020AA
CENTER_NAME    = EARTH
REF_FRAME      = TEME
TIME_SYSTEM    = UTC
MEAN_ELEMENT_THEORY = SGP/SGP4

EPOCH          = 2026-02-13T03:10:16.947840
MEAN_MOTION    = 15.82092695
ECCENTRICITY   = .0001918
INCLINATION    = 42.9982
RA_OF_ASC_NODE = 291.1168
ARG_OF_PERICENTER = 263.9229
MEAN_ANOMALY   = 96.1424

EPHEMERIS_TYPE = 0
CLASSIFICATION_TYPE = U
NORAD_CAT_ID   = 67641
ELEMENT_SET_NO = 999
REV_AT_EPOCH   = 221
BSTAR          = .12861E-2
MEAN_MOTION_DOT = .280229E-2
MEAN_MOTION_DDOT = 0

CCSDS_OMM_VERS = 2.0
CREATION_DATE  = 
ORIGINATOR     = 

OBJECT_NAME    = STARLINK-36556
OBJECT_ID      = 2026-020AB
CENTER_NAME    = EARTH
REF_FRAME      = TEME
TIME_SYSTEM    = UTC
MEAN_ELEMENT_THEORY = SGP/SGP4

EPOCH          = 2026-02-13T03:09:22.097664
MEAN_MOTION    = 15.82062901
ECCENTRICITY   = .0002341
INCLINATION    = 42.9984
RA_OF_ASC_NODE = 291.1114
ARG_OF_PERICENTER = 241.0578
MEAN_ANOMALY   = 119.0059

EPHEMERIS_TYPE = 0
CLASSIFICATION_TYPE = U
NORAD_CAT_ID   = 67642
ELEMENT_SET_NO = 999
REV_AT_EPOCH   = 221
BSTAR          = .10091E-2
MEAN_MOTION_DOT = .217857E-2
MEAN_MOTION_DDOT = 0

CCSDS_OMM_VERS = 2.0
CREATION_DATE  = 
ORIGINATOR     = 

OBJECT_NAME    = STARLINK-36533
OBJECT_ID      = 2026-020AC
CENTER_NAME    = EARTH
REF_FRAME      = TEME
TIME_SYSTEM    = UTC
MEAN_ELEMENT_THEORY = SGP/SGP4

EPOCH          = 2026-02-13T04:00:01.999584
MEAN_MOTION    = 15.76331833
ECCENTRICITY   = .000172
INCLINATION    = 42.9991
RA_OF_ASC_NODE = 291.0142
ARG_OF_PERICENTER = 271.6064
MEAN_ANOMALY   = 242.9063

EPHEMERIS_TYPE = 0
CLASSIFICATION_TYPE = U
NORAD_CAT_ID   = 67643
ELEMENT_SET_NO = 999
REV_AT_EPOCH   = 344
BSTAR          = .62653E-3
MEAN_MOTION_DOT = .102624E-2
MEAN_MOTION_DDOT = 0

CCSDS_OMM_VERS = 2.0
CREATION_DATE  = 
ORIGINATOR     = 

OBJECT_NAME    = STARLINK-36623
OBJECT_ID      = 2026-020AD
CENTER_NAME    = EARTH
REF_FRAME      = TEME
TIME_SYSTEM    = UTC
MEAN_ELEMENT_THEORY = SGP/SGP4

EPOCH          = 2026-02-13T04:00:01.999584
MEAN_MOTION    = 15.76355515
ECCENTRICITY   = .0001603
INCLINATION    = 42.9992
RA_OF_ASC_NODE = 290.9190
ARG_OF_PERICENTER = 270.7630
MEAN_ANOMALY   = 281.0742

EPHEMERIS_TYPE = 0
CLASSIFICATION_TYPE = U
NORAD_CAT_ID   = 67644
ELEMENT_SET_NO = 999
REV_AT_EPOCH   = 344
BSTAR          = .40754E-3
MEAN_MOTION_DOT = .66365E-3
MEAN_MOTION_DDOT = 0

CCSDS_OMM_VERS = 2.0
CREATION_DATE  = 
ORIGINATOR     = 

OBJECT_NAME    = STARLINK-36619
OBJECT_ID      = 2026-020AE
CENTER_NAME    = EARTH
REF_FRAME      = TEME
TIME_SYSTEM    = UTC
MEAN_ELEMENT_THEORY = SGP/SGP4

EPOCH          = 2026-02-13T04:00:01.999584
MEAN_MOTION    = 15.78794155
ECCENTRICITY   = .0001446
INCLINATION    = 42.9988
RA_OF_ASC_NODE = 290.8952
ARG_OF_PERICENTER = 266.8623
MEAN_ANOMALY   = 294.7979

EPHEMERIS_TYPE = 0
CLASSIFICATION_TYPE = U
NORAD_CAT_ID   = 67645
ELEMENT_SET_NO = 999
REV_AT_EPOCH   = 344
BSTAR          = -.11194E-1
MEAN_MOTION_DOT = -.1787098E-1
MEAN_MOTION_DDOT = 0

CCSDS_OMM_VERS = 2.0
CREATION_DATE  = 
ORIGINATOR     = 

OBJECT_NAME    = ALSAT-3B
OBJECT_ID      = 2026-021A
CENTER_NAME    = EARTH
REF_FRAME      = TEME
TIME_SYSTEM    = UTC
MEAN_ELEMENT_THEORY = SGP/SGP4

EPOCH          = 2026-02-13T03:36:58.142016
MEAN_MOTION    = 15.23572335
ECCENTRICITY   = .0011878
INCLINATION    = 97.4720
RA_OF_ASC_NODE = 118.5929
ARG_OF_PERICENTER = 216.3414
MEAN_ANOMALY   = 143.7017

EPHEMERIS_TYPE = 0
CLASSIFICATION_TYPE = U
NORAD_CAT_ID   = 67646
ELEMENT_SET_NO = 999
REV_AT_EPOCH   = 198
BSTAR          = .31103E-3
MEAN_MOTION_DOT = .7382E-4
MEAN_MOTION_DDOT = 0

CCSDS_OMM_VERS = 2.0
CREATION_DATE  = 
ORIGINATOR     = 

OBJECT_NAME    = CZ-2C R/B
OBJECT_ID      = 2026-021B
CENTER_NAME    = EARTH
REF_FRAME      = TEME
TIME_SYSTEM    = UTC
MEAN_ELEMENT_THEORY = SGP/SGP4

EPOCH          = 2026-02-13T03:41:00.238272
MEAN_MOTION    = 15.23413149
ECCENTRICITY   = .0153744
INCLINATION    = 97.6561
RA_OF_ASC_NODE = 119.1280
ARG_OF_PERICENTER = 96.4846
MEAN_ANOMALY   = 265.3921

EPHEMERIS_TYPE = 0
CLASSIFICATION_TYPE = U
NORAD_CAT_ID   = 67647
ELEMENT_SET_NO = 999
REV_AT_EPOCH   = 196
BSTAR          = .39302E-3
MEAN_MOTION_DOT = .12993E-3
MEAN_MOTION_DDOT = 0

